NORAD_CAT_ID,OBJECT_NAME,OBJECT_TYPE,EPOCH,MEAN_MOTION,ECCENTRICITY,INCLINATION,RA_OF_ASC_NODE,ARG_OF_PERICENTER,MEAN_ANOMALY,BSTAR,MEAN_MOTION_DOT,MEAN_MOTION_DDOT,TLE_LINE0,TLE_LINE1,TLE_LINE2,SEMIMAJOR_AXIS,PERIOD,APOGEE,PERIGEE,DECAYED
49172.0,STARLINK-3091,PAYLOAD,2023-02-10 15:10:31,14.98323848,0.0002878,70.0001,226.0766,271.0679,89.015,-1.9463e-05,-3.25e-06,0.0,0 STARLINK-3091,1 49172U 21082AU  23041.63231251 -.00000325  00000-0 -19463-4 0  9998,2 49172  70.0001 226.0766 0002878 271.0679  89.0150 14.98323848 78243,6950.212,96.107,574.077,570.077,0.0
49172.0,STARLINK-3091,PAYLOAD,2023-02-10 16:46:39,14.98323282,0.0002939,70.0001,225.9085,270.7126,89.3697,-3.3462e-05,-4.92e-06,0.0,0 STARLINK-3091,1 49172U 21082AU  23041.69907298 -.00000492  00000-0 -33462-4 0  9995,2 49172  70.0001 225.9085 0002939 270.7126  89.3697 14.98323282 78258,6950.214,96.107,574.121,570.036,0.0
49172.0,STARLINK-3091,PAYLOAD,2023-02-11 05:35:44,14.98328956,0.000301,70.0002,224.5614,271.1501,88.9313,8.2562e-06,6e-08,0.0,0 STARLINK-3091,1 49172U 21082AU  23042.23314827  .00000006  00000-0  82562-5 0  9991,2 49172  70.0002 224.5614 0003010 271.1501  88.9313 14.98328956 78337,6950.196,96.107,574.153,569.969,0.0
49172.0,STARLINK-3091,PAYLOAD,2023-02-11 18:24:48,14.98329641,0.0003017,69.9996,223.2136,267.8215,92.2599,-6.5283e-07,-1.01e-06,0.0,0 STARLINK-3091,1 49172U 21082AU  23042.76722801 -.00000101  00000-0 -65283-6 0  9994,2 49172  69.9996 223.2136 0003017 267.8215  92.2599 14.98329641 78417,6950.194,96.107,574.156,569.962,0.0
49172.0,STARLINK-3091,PAYLOAD,2023-02-12 05:37:44,14.98337744,0.0003298,69.9997,222.036,256.0572,104.022,-0.00010724,-1.373e-05,0.0,0 STARLINK-3091,1 49172U 21082AU  23043.23454377 -.00001373  00000-0 -10724-3 0  9996,2 49172  69.9997 222.0360 0003298 256.0572 104.0220 14.98337744 78484,6950.169,96.107,574.326,569.742,0.0
49172.0,STARLINK-3091,PAYLOAD,2023-02-12 12:02:17,14.98325412,0.0003203,69.9998,221.3625,269.7988,90.2804,8.376e-05,9.06e-06,0.0,0 STARLINK-3091,1 49172U 21082AU  23043.50158774  .00000906  00000-0  83760-4 0  9998,2 49172  69.9998 221.3625 0003203 269.7988  90.2804 14.98325412 78527,6950.207,96.107,574.298,569.846,0.0
49172.0,STARLINK-3091,PAYLOAD,2023-02-13 10:28:09,14.98331547,0.0003208,69.9993,219.0063,270.0754,90.0037,8.6882e-05,9.44e-06,0.0,0 STARLINK-3091,1 49172U 21082AU  23044.43622525  .00000944  00000-0  86882-4 0  9991,2 49172  69.9993 219.0063 0003208 270.0754  90.0037 14.98331547 78660,6950.188,96.107,574.283,569.823,0.0
49172.0,STARLINK-3091,PAYLOAD,2023-02-14 12:06:19,14.98329548,0.0003151,69.9993,216.3132,270.8339,89.2459,2.6762e-05,2.26e-06,0.0,0 STARLINK-3091,1 49172U 21082AU  23045.50438697  .00000226  00000-0  26762-4 0  9999,2 49172  69.9993 216.3132 0003151 270.8339  89.2459 14.98329548 78825,6950.194,96.107,574.249,569.869,0.0
49172.0,STARLINK-3091,PAYLOAD,2023-02-14 21:43:06,14.98370113,0.0002933,69.9995,215.3036,263.9942,96.0882,-0.00065419,-7.898e-05,0.0,0 STARLINK-3091,1 49172U 21082AU  23045.90493376 -.00007898  00000-0 -65419-3 0  9993,2 49172  69.9995 215.3036 0002933 263.9942  96.0882 14.98370113 78885,6950.069,96.104,573.972,569.895,0.0
49172.0,STARLINK-3091,PAYLOAD,2023-02-15 04:07:40,14.98297684,0.000309,69.9994,214.6303,268.7625,91.318,0.00063077,7.435e-05,0.0,0 STARLINK-3091,1 49172U 21082AU  23046.17199513  .00007435  00000-0  63077-3 0  9992,2 49172  69.9994 214.6303 0003090 268.7625  91.3180 14.98297684 78924,6950.293,96.109,574.305,570.01,0.0
49172.0,STARLINK-3091,PAYLOAD,2023-02-15 12:08:19,14.98330815,0.0003102,69.9993,213.7888,270.1846,89.8958,-1.1434e-05,-2.29e-06,0.0,0 STARLINK-3091,1 49172U 21082AU  23046.50578593 -.00000229  00000-0 -11434-4 0  9995,2 49172  69.9993 213.7888 0003102 270.1846  89.8958 14.98330815 78971,6950.19,96.107,574.211,569.899,0.0
49172.0,STARLINK-3091,PAYLOAD,2023-02-15 20:08:59,14.98333947,0.0002986,69.999,212.9471,265.7436,94.3382,4.7095e-05,4.69e-06,0.0,0 STARLINK-3091,1 49172U 21082AU  23046.83958176  .00000469  00000-0  47095-4 0  9996,2 49172  69.9990 212.9471 0002986 265.7436  94.3382 14.98333947 79029,6950.181,96.107,574.121,569.97,0.0
49172.0,STARLINK-3091,PAYLOAD,2023-02-16 12:10:21,14.98322303,0.0003161,69.998,211.2617,269.0402,91.0395,9.3276e-05,1.02e-05,0.0,0 STARLINK-3091,1 49172U 21082AU  23047.50718768  .00001020  00000-0  93276-4 0  9998,2 49172  69.9980 211.2617 0003161 269.0402  91.0395 14.98322303 79121,6950.217,96.107,574.279,569.885,0.0
49172.0,STARLINK-3091,PAYLOAD,2023-02-16 16:58:45,14.98327787,0.0003071,69.9993,210.7593,270.2053,89.8754,1.8581e-05,1.29e-06,0.0,0 STARLINK-3091,1 49172U 21082AU  23047.70746692  .00000129  00000-0  18581-4 0  9992,2 49172  69.9993 210.7593 0003071 270.2053  89.8754 14.98327787 79156,6950.2,96.107,574.199,569.93,0.0
49172.0,STARLINK-3091,PAYLOAD,2023-02-17 10:36:14,14.98325665,0.0003056,70.0,208.9078,268.9152,91.1657,-2.9369e-06,-1.28e-06,0.0,0 STARLINK-3091,1 49172U 21082AU  23048.44182954 -.00000128  00000-0 -29369-5 0  9997,2 49172  70.0000 208.9078 0003056 268.9152  91.1657 14.98325665 79265,6950.206,96.107,574.195,569.947,0.0
49172.0,STARLINK-3091,PAYLOAD,2023-02-17 18:36:54,14.98330352,0.0003299,70.0005,208.065,267.8993,92.1789,-1.7945e-07,-9.5e-07,0.0,0 STARLINK-3091,1 49172U 21082AU  23048.77562650 -.00000095  00000-0 -17945-6 0  9999,2 49172  70.0005 208.0650 0003299 267.8993  92.1789 14.98330352 79319,6950.192,96.107,574.35,569.764,0.0
49172.0,STARLINK-3091,PAYLOAD,2023-02-17 20:13:02,14.98330899,0.0003223,70.0011,207.8968,266.3202,93.7589,1.9069e-05,1.35e-06,0.0,0 STARLINK-3091,1 49172U 21082AU  23048.84238541  .00000135  00000-0  19069-4 0  9996,2 49172  70.0011 207.8968 0003223 266.3202  93.7589 14.98330899 79321,6950.19,96.107,574.295,569.815,0.0
49172.0,STARLINK-3091,PAYLOAD,2023-02-18 10:38:14,14.98339506,0.0002901,70.001,206.3819,261.7032,98.3798,-0.00011775,-1.498e-05,0.0,0 STARLINK-3091,1 49172U 21082AU  23049.44322552 -.00001498  00000-0 -11775-3 0  9999,2 49172  70.0010 206.3819 0002901 261.7032  98.3798 14.98339506 79418,6950.163,96.106,574.045,570.012,0.0
49172.0,STARLINK-3091,PAYLOAD,2023-02-18 20:15:03,14.98330228,0.0003048,70.0007,205.3732,269.2677,90.8133,6.2944e-05,6.58e-06,0.0,0 STARLINK-3091,1 49172U 21082AU  23049.84378570  .00000658  00000-0  62944-4 0  9994,2 49172  70.0007 205.3732 0003048 269.2677  90.8133 14.98330228 79476,6950.192,96.107,574.176,569.939,0.0
49172.0,STARLINK-3091,PAYLOAD,2023-02-19 13:52:31,14.98342185,0.000289,70.0009,203.5221,272.0867,87.9961,-0.00014668,-1.843e-05,0.0,0 STARLINK-3091,1 49172U 21082AU  23050.57814372 -.00001843  00000-0 -14668-3 0  9999,2 49172  70.0009 203.5221 0002890 272.0867  87.9961 14.98342185 79581,6950.155,96.106,574.029,570.012,0.0
49172.0,STARLINK-3091,PAYLOAD,2023-02-19 20:17:05,14.98273866,0.0002772,70.0009,202.8489,274.1406,85.9436,0.0011798,0.00013992,0.0,0 STARLINK-3091,1 49172U 21082AU  23050.84519878  .00013992  00000-0  11798-2 0  9998,2 49172  70.0009 202.8489 0002772 274.1406  85.9436 14.98273866 79629,6950.366,96.111,574.158,570.305,0.0
49172.0,STARLINK-3091,PAYLOAD,2023-02-20 02:41:36,14.98333282,0.0003083,70.001,202.1755,270.8007,89.2799,4.5721e-05,4.53e-06,0.0,0 STARLINK-3091,1 49172U 21082AU  23051.11222334  .00000453  00000-0  45721-4 0  9990,2 49172  70.0010 202.1755 0003083 270.8007  89.2799 14.98333282 79668,6950.183,96.107,574.19,569.905,0.0
49172.0,STARLINK-3091,PAYLOAD,2023-02-20 13:54:32,14.98330941,0.000306,70.001,200.9974,270.8715,89.2093,3.2012e-05,2.89e-06,0.0,0 STARLINK-3091,1 49172U 21082AU  23051.57954466  .00000289  00000-0  32012-4 0  9994,2 49172  70.0010 200.9974 0003060 270.8715  89.2093 14.98330941 79732,6950.19,96.107,574.182,569.928,0.0
49172.0,STARLINK-3091,PAYLOAD,2023-02-21 12:20:25,14.98333183,0.0003099,70.0004,198.6409,270.1625,89.9179,-1.4751e-05,-2.69e-06,0.0,0 STARLINK-3091,1 49172U 21082AU  23052.51418187 -.00000269  00000-0 -14751-4 0  9994,2 49172  70.0004 198.6409 0003099 270.1625  89.9179 14.98333183 79874,6950.183,96.107,574.202,569.894,0.0
49172.0,STARLINK-3091,PAYLOAD,2023-02-21 18:44:57,14.98337238,0.0002879,70.0012,197.9685,269.1654,90.9175,3.9016e-05,3.73e-06,0.0,0 STARLINK-3091,1 49172U 21082AU  23052.78121712  .00000373  00000-0  39016-4 0  9993,2 49172  70.0012 197.9685 0002879 269.1654  90.9175 14.98337238 79914,6950.171,96.107,574.036,570.035,0.0
49172.0,STARLINK-3091,PAYLOAD,2023-02-22 12:22:26,14.98328866,0.0003043,70.0004,196.1163,272.1622,87.9188,3.7102e-06,-4.9e-07,0.0,0 STARLINK-3091,1 49172U 21082AU  23053.51558182 -.00000049  00000-0  37102-5 0  9996,2 49172  70.0004 196.1163 0003043 272.1622  87.9188 14.98328866 80021,6950.196,96.107,574.176,569.946,0.0
49172.0,STARLINK-3091,PAYLOAD,2023-02-23 02:47:39,14.9832557,0.0002345,70.0025,194.6011,275.5836,84.5055,-0.000101,-1.298e-05,0.0,0 STARLINK-3091,1 49172U 21082AU  23054.11642881 -.00001298  00000-0 -10100-3 0  9998,2 49172  70.0025 194.6011 0002345 275.5836  84.5055 14.98325570 80112,6950.207,96.107,573.701,570.442,0.0
49172.0,STARLINK-3091,PAYLOAD,2023-02-23 12:24:27,14.98325971,0.0003241,70.001,193.5921,267.4722,92.6066,-8.4594e-05,-1.102e-05,0.0,0 STARLINK-3091,1 49172U 21082AU  23054.51698566 -.00001102  00000-0 -84594-4 0  9996,2 49172  70.0010 193.5921 0003241 267.4722  92.6066 14.98325971 80177,6950.205,96.107,574.323,569.818,0.0
49172.0,STARLINK-3091,PAYLOAD,2023-02-23 20:25:07,14.98335716,0.0003135,70.0008,192.7503,267.4669,92.6131,2.6601e-05,2.24e-06,0.0,0 STARLINK-3091,1 49172U 21082AU  23054.85077676  .00000224  00000-0  26601-4 0  9993,2 49172  70.0008 192.7503 0003135 267.4669  92.6131 14.98335716 80220,6950.175,96.107,574.219,569.861,0.0
49172.0,STARLINK-3091,PAYLOAD,2023-02-24 12:26:27,14.98328469,0.0003293,70.0004,191.0659,266.572,93.5062,9.4292e-05,1.032e-05,0.0,0 STARLINK-3091,1 49172U 21082AU  23055.51837912  .00001032  00000-0  94292-4 0  9993,2 49172  70.0004 191.0659 0003293 266.5720  93.5062 14.98328469 80324,6950.198,96.107,574.351,569.774,0.0
